[{"OBJECT_NAME":"YAOGAN-9 01B","OBJECT_ID":"2010-009B","EPOCH":"2026-03-09T21:36:43.133472","MEAN_MOTION":13.45689777,"ECCENTRICITY":0.05298959,"INCLINATION":63.3654,"RA_OF_ASC_NODE":254.758,"ARG_OF_PERICENTER":20.1216,"MEAN_ANOMALY":341.9863,"EPHEMERIS_TYPE":0,"CLASSIFICATION_TYPE":"U","NORAD_CAT_ID":36414,"ELEMENT_SET_NO":999,"REV_AT_EPOCH":78638,"BSTAR":7.8644801e-5,"MEAN_MOTION_DOT":1.9e-7,"MEAN_MOTION_DDOT":0},{"OBJECT_NAME":"CZ-6A DEB","OBJECT_ID":"2024-140SA","EPOCH":"2026-03-09T13:39:55.399680","MEAN_MOTION":14.58199023,"ECCENTRICITY":0.0060273,"INCLINATION":88.9467,"RA_OF_ASC_NODE":278.9362,"ARG_OF_PERICENTER":258.0661,"MEAN_ANOMALY":101.3789,"EPHEMERIS_TYPE":0,"CLASSIFICATION_TYPE":"U","NORAD_CAT_ID":61265,"ELEMENT_SET_NO":999,"REV_AT_EPOCH":8130,"BSTAR":0.0016787,"MEAN_MOTION_DOT":7.958e-5,"MEAN_MOTION_DDOT":0}]
